<?xml version="1.0" encoding="UTF-8"?>
<ndm xmlns:xsi="http://www.w3.org/2001/XMLSchema-instance" xsi:noNamespaceSchemaLocation="https://sanaregistry.org/r/ndmxml_unqualified/ndmxml-2.0.0-master-2.0.xsd">
<omm id="CCSDS_OMM_VERS" version="2.0">
<header><CREATION_DATE/><ORIGINATOR/></header><body><segment><metadata><OBJECT_NAME>KUIPER-00157</OBJECT_NAME><OBJECT_ID>2025-228Z</OBJECT_ID><CENTER_NAME>EARTH</CENTER_NAME><REF_FRAME>TEME</REF_FRAME><TIME_SYSTEM>UTC</TIME_SYSTEM><MEAN_ELEMENT_THEORY>SGP4</MEAN_ELEMENT_THEORY></metadata><data><meanElements><EPOCH>2025-12-31T04:42:41.566752</EPOCH><MEAN_MOTION>15.36886326</MEAN_MOTION><ECCENTRICITY>.0007428</ECCENTRICITY><INCLINATION>51.8811</INCLINATION><RA_OF_ASC_NODE>291.5168</RA_OF_ASC_NODE><ARG_OF_PERICENTER>96.9016</ARG_OF_PERICENTER><MEAN_ANOMALY>263.2816</MEAN_ANOMALY></meanElements><tleParameters><EPHEMERIS_TYPE>0</EPHEMERIS_TYPE><CLASSIFICATION_TYPE>U</CLASSIFICATION_TYPE><NORAD_CAT_ID>65970</NORAD_CAT_ID><ELEMENT_SET_NO>999</ELEMENT_SET_NO><REV_AT_EPOCH>1325</REV_AT_EPOCH><BSTAR>.17286E-2</BSTAR><MEAN_MOTION_DOT>.63502E-3</MEAN_MOTION_DOT><MEAN_MOTION_DDOT>0</MEAN_MOTION_DDOT></tleParameters></data></segment></body></omm>
<omm id="CCSDS_OMM_VERS" version="2.0">
<header><CREATION_DATE/><ORIGINATOR/></header><body><segment><metadata><OBJECT_NAME>KUIPER-00144</OBJECT_NAME><OBJECT_ID>2025-301A</OBJECT_ID><CENTER_NAME>EARTH</CENTER_NAME><REF_FRAME>TEME</REF_FRAME><TIME_SYSTEM>UTC</TIME_SYSTEM><MEAN_ELEMENT_THEORY>SGP4</MEAN_ELEMENT_THEORY></metadata><data><meanElements><EPOCH>2025-12-31T10:48:28.613088</EPOCH><MEAN_MOTION>15.35657079</MEAN_MOTION><ECCENTRICITY>.0006426</ECCENTRICITY><INCLINATION>51.8703</INCLINATION><RA_OF_ASC_NODE>34.9053</RA_OF_ASC_NODE><ARG_OF_PERICENTER>134.2861</ARG_OF_PERICENTER><MEAN_ANOMALY>225.8653</MEAN_ANOMALY></meanElements><tleParameters><EPHEMERIS_TYPE>0</EPHEMERIS_TYPE><CLASSIFICATION_TYPE>U</CLASSIFICATION_TYPE><NORAD_CAT_ID>67133</NORAD_CAT_ID><ELEMENT_SET_NO>999</ELEMENT_SET_NO><REV_AT_EPOCH>324</REV_AT_EPOCH><BSTAR>.71912E-3</BSTAR><MEAN_MOTION_DOT>.25029E-3</MEAN_MOTION_DOT><MEAN_MOTION_DDOT>0</MEAN_MOTION_DDOT></tleParameters></data></segment></body></omm>
<omm id="CCSDS_OMM_VERS" version="2.0">
<header><CREATION_DATE/><ORIGINATOR/></header><body><segment><metadata><OBJECT_NAME>KUIPER-00164</OBJECT_NAME><OBJECT_ID>2025-301B</OBJECT_ID><CENTER_NAME>EARTH</CENTER_NAME><REF_FRAME>TEME</REF_FRAME><TIME_SYSTEM>UTC</TIME_SYSTEM><MEAN_ELEMENT_THEORY>SGP4</MEAN_ELEMENT_THEORY></metadata><data><meanElements><EPOCH>2025-12-31T12:12:07.151040</EPOCH><MEAN_MOTION>15.36301928</MEAN_MOTION><ECCENTRICITY>.0003089</ECCENTRICITY><INCLINATION>51.8723</INCLINATION><RA_OF_ASC_NODE>34.5458</RA_OF_ASC_NODE><ARG_OF_PERICENTER>119.4137</ARG_OF_PERICENTER><MEAN_ANOMALY>240.7158</MEAN_ANOMALY></meanElements><tleParameters><EPHEMERIS_TYPE>0</EPHEMERIS_TYPE><CLASSIFICATION_TYPE>U</CLASSIFICATION_TYPE><NORAD_CAT_ID>67134</NORAD_CAT_ID><ELEMENT_SET_NO>999</ELEMENT_SET_NO><REV_AT_EPOCH>343</REV_AT_EPOCH><BSTAR>.13855E-2</BSTAR><MEAN_MOTION_DOT>.49742E-3</MEAN_MOTION_DOT><MEAN_MOTION_DDOT>0</MEAN_MOTION_DDOT></tleParameters></data></segment></body></omm>
<omm id="CCSDS_OMM_VERS" version="2.0">
<header><CREATION_DATE/><ORIGINATOR/></header><body><segment><metadata><OBJECT_NAME>KUIPER-00175</OBJECT_NAME><OBJECT_ID>2025-301C</OBJECT_ID><CENTER_NAME>EARTH</CENTER_NAME><REF_FRAME>TEME</REF_FRAME><TIME_SYSTEM>UTC</TIME_SYSTEM><MEAN_ELEMENT_THEORY>SGP4</MEAN_ELEMENT_THEORY></metadata><data><meanElements><EPOCH>2025-12-31T12:05:16.243872</EPOCH><MEAN_MOTION>15.36816225</MEAN_MOTION><ECCENTRICITY>.000251</ECCENTRICITY><INCLINATION>51.8742</INCLINATION><RA_OF_ASC_NODE>34.5097</RA_OF_ASC_NODE><ARG_OF_PERICENTER>72.0633</ARG_OF_PERICENTER><MEAN_ANOMALY>288.0627</MEAN_ANOMALY></meanElements><tleParameters><EPHEMERIS_TYPE>0</EPHEMERIS_TYPE><CLASSIFICATION_TYPE>U</CLASSIFICATION_TYPE><NORAD_CAT_ID>67135</NORAD_CAT_ID><ELEMENT_SET_NO>999</ELEMENT_SET_NO><REV_AT_EPOCH>332</REV_AT_EPOCH><BSTAR>.768E-3</BSTAR><MEAN_MOTION_DOT>.2778E-3</MEAN_MOTION_DOT><MEAN_MOTION_DDOT>0</MEAN_MOTION_DDOT></tleParameters></data></segment></body></omm>
<omm id="CCSDS_OMM_VERS" version="2.0">
<header><CREATION_DATE/><ORIGINATOR/></header><body><segment><metadata><OBJECT_NAME>KUIPER-00179</OBJECT_NAME><OBJECT_ID>2025-301D</OBJECT_ID><CENTER_NAME>EARTH</CENTER_NAME><REF_FRAME>TEME</REF_FRAME><TIME_SYSTEM>UTC</TIME_SYSTEM><MEAN_ELEMENT_THEORY>SGP4</MEAN_ELEMENT_THEORY></metadata><data><meanElements><EPOCH>2025-12-31T12:09:52.506144</EPOCH><MEAN_MOTION>15.36395362</MEAN_MOTION><ECCENTRICITY>.000323</ECCENTRICITY><INCLINATION>51.8737</INCLINATION><RA_OF_ASC_NODE>34.5328</RA_OF_ASC_NODE><ARG_OF_PERICENTER>99.7808</ARG_OF_PERICENTER><MEAN_ANOMALY>260.3543</MEAN_ANOMALY></meanElements><tleParameters><EPHEMERIS_TYPE>0</EPHEMERIS_TYPE><CLASSIFICATION_TYPE>U</CLASSIFICATION_TYPE><NORAD_CAT_ID>67136</NORAD_CAT_ID><ELEMENT_SET_NO>999</ELEMENT_SET_NO><REV_AT_EPOCH>343</REV_AT_EPOCH><BSTAR>.89167E-3</BSTAR><MEAN_MOTION_DOT>.31896E-3</MEAN_MOTION_DOT><MEAN_MOTION_DDOT>0</MEAN_MOTION_DDOT></tleParameters></data></segment></body></omm>
<omm id="CCSDS_OMM_VERS" version="2.0">
<header><CREATION_DATE/><ORIGINATOR/></header><body><segment><metadata><OBJECT_NAME>KUIPER-00181</OBJECT_NAME><OBJECT_ID>2025-301E</OBJECT_ID><CENTER_NAME>EARTH</CENTER_NAME><REF_FRAME>TEME</REF_FRAME><TIME_SYSTEM>UTC</TIME_SYSTEM><MEAN_ELEMENT_THEORY>SGP4</MEAN_ELEMENT_THEORY></metadata><data><meanElements><EPOCH>2025-12-31T11:03:20.745792</EPOCH><MEAN_MOTION>15.34608283</MEAN_MOTION><ECCENTRICITY>.0010452</ECCENTRICITY><INCLINATION>51.8644</INCLINATION><RA_OF_ASC_NODE>34.9693</RA_OF_ASC_NODE><ARG_OF_PERICENTER>160.0386</ARG_OF_PERICENTER><MEAN_ANOMALY>200.1010</MEAN_ANOMALY></meanElements><tleParameters><EPHEMERIS_TYPE>0</EPHEMERIS_TYPE><CLASSIFICATION_TYPE>U</CLASSIFICATION_TYPE><NORAD_CAT_ID>67137</NORAD_CAT_ID><ELEMENT_SET_NO>999</ELEMENT_SET_NO><REV_AT_EPOCH>340</REV_AT_EPOCH><BSTAR>.14629E-2</BSTAR><MEAN_MOTION_DOT>.49832E-3</MEAN_MOTION_DOT><MEAN_MOTION_DDOT>0</MEAN_MOTION_DDOT></tleParameters></data></segment></body></omm>
<omm id="CCSDS_OMM_VERS" version="2.0">
<header><CREATION_DATE/><ORIGINATOR/></header><body><segment><metadata><OBJECT_NAME>KUIPER-00183</OBJECT_NAME><OBJECT_ID>2025-301F</OBJECT_ID><CENTER_NAME>EARTH</CENTER_NAME><REF_FRAME>TEME</REF_FRAME><TIME_SYSTEM>UTC</TIME_SYSTEM><MEAN_ELEMENT_THEORY>SGP4</MEAN_ELEMENT_THEORY></metadata><data><meanElements><EPOCH>2025-12-31T11:07:55.430400</EPOCH><MEAN_MOTION>15.34333275</MEAN_MOTION><ECCENTRICITY>.0010975</ECCENTRICITY><INCLINATION>51.8626</INCLINATION><RA_OF_ASC_NODE>34.9870</RA_OF_ASC_NODE><ARG_OF_PERICENTER>162.8359</ARG_OF_PERICENTER><MEAN_ANOMALY>197.2999</MEAN_ANOMALY></meanElements><tleParameters><EPHEMERIS_TYPE>0</EPHEMERIS_TYPE><CLASSIFICATION_TYPE>U</CLASSIFICATION_TYPE><NORAD_CAT_ID>67138</NORAD_CAT_ID><ELEMENT_SET_NO>999</ELEMENT_SET_NO><REV_AT_EPOCH>341</REV_AT_EPOCH><BSTAR>.89707E-3</BSTAR><MEAN_MOTION_DOT>.30068E-3</MEAN_MOTION_DOT><MEAN_MOTION_DDOT>0</MEAN_MOTION_DDOT></tleParameters></data></segment></body></omm>
<omm id="CCSDS_OMM_VERS" version="2.0">
<header><CREATION_DATE/><ORIGINATOR/></header><body><segment><metadata><OBJECT_NAME>KUIPER-00184</OBJECT_NAME><OBJECT_ID>2025-301G</OBJECT_ID><CENTER_NAME>EARTH</CENTER_NAME><REF_FRAME>TEME</REF_FRAME><TIME_SYSTEM>UTC</TIME_SYSTEM><MEAN_ELEMENT_THEORY>SGP4</MEAN_ELEMENT_THEORY></metadata><data><meanElements><EPOCH>2025-12-31T11:02:14.246304</EPOCH><MEAN_MOTION>15.34637479</MEAN_MOTION><ECCENTRICITY>.0009091</ECCENTRICITY><INCLINATION>51.8635</INCLINATION><RA_OF_ASC_NODE>34.9630</RA_OF_ASC_NODE><ARG_OF_PERICENTER>158.3394</ARG_OF_PERICENTER><MEAN_ANOMALY>201.7977</MEAN_ANOMALY></meanElements><tleParameters><EPHEMERIS_TYPE>0</EPHEMERIS_TYPE><CLASSIFICATION_TYPE>U</CLASSIFICATION_TYPE><NORAD_CAT_ID>67139</NORAD_CAT_ID><ELEMENT_SET_NO>999</ELEMENT_SET_NO><REV_AT_EPOCH>352</REV_AT_EPOCH><BSTAR>.88656E-3</BSTAR><MEAN_MOTION_DOT>.29985E-3</MEAN_MOTION_DOT><MEAN_MOTION_DDOT>0</MEAN_MOTION_DDOT></tleParameters></data></segment></body></omm>

</ndm>
